{"type": "FeatureCollection", "features": [ {"type": "Feature", "properties": {"norad_id": 34784, "name": "COSMOS 2251 DEB", "group": "cosmos-2251-debris", "lat": 9.692867787782598, "lon": 145.13130921142573, "alt_km": 662.2657149049492, "timestamp": "2025-12-10T20:49:52.947740+00:00", "meta": {"OBJECT_NAME": "COSMOS 2251 DEB", "OBJECT_ID": "1993-036AAM", "EPOCH": "2025-12-10T08:33:14.986080", "MEAN_MOTION": 14.60761042, "ECCENTRICITY": 0.0049485, "INCLINATION": 74.0077, "RA_OF_ASC_NODE": 328.9177, "ARG_OF_PERICENTER": 138.9494, "MEAN_ANOMALY": 221.5413, "EPHEMERIS_TYPE": 0, "CLASSIFICATION_TYPE": "U", "NORAD_CAT_ID": 34784, "ELEMENT_SET_NO": 999, "REV_AT_EPOCH": 88500, "BSTAR": 0.00070133422, "MEAN_MOTION_DOT": 3.453e-05, "MEAN_MOTION_DDOT": 0}, "tle": {"line1": "1 34784U 93036AAM 25344.35642345  .00003453  00000+0  70133-3 0  9998", "line2": "2 34784  74.0077 328.9177 0049485 138.9494 221.5413 14.60761042885008"}}, "geometry": {"type": "Point", "coordinates": [145.13130921142573, 9.692867787782598]}}, {"type": "Feature", "properties": {"norad_id": 34790, "name": "COSMOS 2251 DEB", "group": "cosmos-2251-debris", "lat": 1.650464004946585, "lon": 66.6044351862202, "alt_km": 859.1043410618486, "timestamp": "2025-12-10T20:49:52.947750+00:00", "meta": {"OBJECT_NAME": "COSMOS 2251 DEB", "OBJECT_ID": "1993-036AAT", "EPOCH": "2025-12-10T10:26:36.370752", "MEAN_MOTION": 14.24618464, "ECCENTRICITY": 0.01005941, "INCLINATION": 74.0542, "RA_OF_ASC_NODE": 247.8554, "ARG_OF_PERICENTER": 309.9809, "MEAN_ANOMALY": 170.1192, "EPHEMERIS_TYPE": 0, "CLASSIFICATION_TYPE": "U", "NORAD_CAT_ID": 34790, "ELEMENT_SET_NO": 999, "REV_AT_EPOCH": 86540, "BSTAR": 0.001154391, "MEAN_MOTION_DOT": 2.802e-05, "MEAN_MOTION_DDOT": 0}, "tle": {"line1": "1 34790U 93036AAT 25344.43514318  .00002802  00000+0  11544-2 0  9999", "line2": "2 34790  74.0542 247.8554 0100594 309.9809 170.1192 14.24618464865403"}}, "geometry": {"type": "Point", "coordinates": [66.6044351862202, 1.650464004946585]}}, {"type": "Feature", "properties": {"norad_id": 34792, "name": "COSMOS 2251 DEB", "group": "cosmos-2251-debris", "lat": -72.77688164245163, "lon": 105.66421559018092, "alt_km": 704.5565998296361, "timestamp": "2025-12-10T20:49:52.947760+00:00", "meta": {"OBJECT_NAME": "COSMOS 2251 DEB", "OBJECT_ID": "1993-036AAV", "EPOCH": "2025-12-09T12:22:02.661312", "MEAN_MOTION": 14.55910931, "ECCENTRICITY": 0.00125292, "INCLINATION": 74.0177, "RA_OF_ASC_NODE": 175.8284, "ARG_OF_PERICENTER": 269.6711, "MEAN_ANOMALY": 119.962, "EPHEMERIS_TYPE": 0, "CLASSIFICATION_TYPE": "U", "NORAD_CAT_ID": 34792, "ELEMENT_SET_NO": 999, "REV_AT_EPOCH": 87603, "BSTAR": 0.0013597617, "MEAN_MOTION_DOT": 5.954e-05, "MEAN_MOTION_DDOT": 0}, "tle": {"line1": "1 34792U 93036AAV 25343.51530858  .00005954  00000+0  13598-2 0  9998", "line2": "2 34792  74.0177 175.8284 0012529 269.6711 119.9620 14.55910931876039"}}, "geometry": {"type": "Point", "coordinates": [105.66421559018092, -72.77688164245163]}}, {"type": "Feature", "properties": {"norad_id": 34793, "name": "COSMOS 2251 DEB", "group": "cosmos-2251-debris", "lat": 7.551748449590995, "lon": 71.64529351556041, "alt_km": 784.2821566529992, "timestamp": "2025-12-10T20:49:52.947770+00:00", "meta": {"OBJECT_NAME": "COSMOS 2251 DEB", "OBJECT_ID": "1993-036AAW", "EPOCH": "2025-12-10T12:31:31.027296", "MEAN_MOTION": 14.38638927, "ECCENTRICITY": 0.00502054, "INCLINATION": 74.0029, "RA_OF_ASC_NODE": 254.464, "ARG_OF_PERICENTER": 49.1655, "MEAN_ANOMALY": 130.6842, "EPHEMERIS_TYPE": 0, "CLASSIFICATION_TYPE": "U", "NORAD_CAT_ID": 34793, "ELEMENT_SET_NO": 999, "REV_AT_EPOCH": 87298, "BSTAR": 0.0004208833, "MEAN_MOTION_DOT": 1.282e-05, "MEAN_MOTION_DDOT": 0}, "tle": {"line1": "1 34793U 93036AAW 25344.52188689  .00001282  00000+0  42088-3 0  9999", "line2": "2 34793  74.0029 254.4640 0050205  49.1655 130.6842 14.38638927872986"}}, "geometry": {"type": "Point", "coordinates": [71.64529351556041, 7.551748449590995]}}, {"type": "Feature", "properties": {"norad_id": 34796, "name": "COSMOS 2251 DEB", "group": "cosmos-2251-debris", "lat": -16.488149623039323, "lon": 44.717292980210054, "alt_km": 775.1350581347288, "timestamp": "2025-12-10T20:49:52.947779+00:00", "meta": {"OBJECT_NAME": "COSMOS 2251 DEB", "OBJECT_ID": "1993-036AAZ", "EPOCH": "2025-12-10T02:22:55.926624", "MEAN_MOTION": 14.48668134, "ECCENTRICITY": 0.01002111, "INCLINATION": 74.0294, "RA_OF_ASC_NODE": 221.2955, "ARG_OF_PERICENTER": 323.9503, "MEAN_ANOMALY": 186.6627, "EPHEMERIS_TYPE": 0, "CLASSIFICATION_TYPE": "U", "NORAD_CAT_ID": 34796, "ELEMENT_SET_NO": 999, "REV_AT_EPOCH": 87989, "BSTAR": 0.00086649883, "MEAN_MOTION_DOT": 3.449e-05, "MEAN_MOTION_DDOT": 0}, "tle": {"line1": "1 34796U 93036AAZ 25344.09925841  .00003449  00000+0  86650-3 0  9993", "line2": "2 34796  74.0294 221.2955 0100211 323.9503 186.6627 14.48668134879895"}}, "geometry": {"type": "Point", "coordinates": [44.717292980210054, -16.488149623039323]}}, {"type": "Feature", "properties": {"norad_id": 34797, "name": "COSMOS 2251 DEB", "group": "cosmos-2251-debris", "lat": 1.0062960649714434, "lon": 103.76250721048108, "alt_km": 793.4198598582188, "timestamp": "2025-12-10T20:49:52.947789+00:00", "meta": {"OBJECT_NAME": "COSMOS 2251 DEB", "OBJECT_ID": "1993-036ABA", "EPOCH": "2025-12-08T02:15:30.483648", "MEAN_MOTION": 14.42690241, "ECCENTRICITY": 0.00721111, "INCLINATION": 73.9779, "RA_OF_ASC_NODE": 108.638, "ARG_OF_PERICENTER": 222.8023, "MEAN_ANOMALY": 136.7506, "EPHEMERIS_TYPE": 0, "CLASSIFICATION_TYPE": "U", "NORAD_CAT_ID": 34797, "ELEMENT_SET_NO": 999, "REV_AT_EPOCH": 87348, "BSTAR": 0.0033221371, "MEAN_MOTION_DOT": 0.00011397, "MEAN_MOTION_DDOT": 0}, "tle": {"line1": "1 34797U 93036ABA 25342.09410282  .00011397  00000+0  33221-2 0  9996", "line2": "2 34797  73.9779 108.6380 0072111 222.8023 136.7506 14.42690241873482"}}, "geometry": {"type": "Point", "coordinates": [103.76250721048108, 1.0062960649714434]}}, {"type": "Feature", "properties": {"norad_id": 34814, "name": "COSMOS 2251 DEB", "group": "cosmos-2251-debris", "lat": 22.921890103227092, "lon": -24.074041764755158, "alt_km": 806.9937200973336, "timestamp": "2025-12-10T20:49:52.947799+00:00", "meta": {"OBJECT_NAME": "COSMOS 2251 DEB", "OBJECT_ID": "1993-036ABD", "EPOCH": "2025-12-10T09:43:34.915008", "MEAN_MOTION": 14.36877129, "ECCENTRICITY": 0.00563648, "INCLINATION": 73.896, "RA_OF_ASC_NODE": 329.7665, "ARG_OF_PERICENTER": 219.7218, "MEAN_ANOMALY": 291.6009, "EPHEMERIS_TYPE": 0, "CLASSIFICATION_TYPE": "U", "NORAD_CAT_ID": 34814, "ELEMENT_SET_NO": 999, "REV_AT_EPOCH": 87299, "BSTAR": 0.0011961739, "MEAN_MOTION_DOT": 3.577e-05, "MEAN_MOTION_DDOT": 0}, "tle": {"line1": "1 34814U 93036ABD 25344.40526522  .00003577  00000+0  11962-2 0  9997", "line2": "2 34814  73.8960 329.7665 0056364 219.7218 291.6009 14.36877129872997"}}, "geometry": {"type": "Point", "coordinates": [-24.074041764755158, 22.921890103227092]}}, {"type": "Feature", "properties": {"norad_id": 34815, "name": "COSMOS 2251 DEB", "group": "cosmos-2251-debris", "lat": -71.23810397561728, "lon": 122.8503121630365, "alt_km": 617.884012488702, "timestamp": "2025-12-10T20:49:52.947809+00:00", "meta": {"OBJECT_NAME": "COSMOS 2251 DEB", "OBJECT_ID": "1993-036ABE", "EPOCH": "2025-12-09T11:10:12.352800", "MEAN_MOTION": 14.78241415, "ECCENTRICITY": 0.00588661, "INCLINATION": 74.0452, "RA_OF_ASC_NODE": 248.2294, "ARG_OF_PERICENTER": 318.1055, "MEAN_ANOMALY": 41.5622, "EPHEMERIS_TYPE": 0, "CLASSIFICATION_TYPE": "U", "NORAD_CAT_ID": 34815, "ELEMENT_SET_NO": 999, "REV_AT_EPOCH": 88579, "BSTAR": 0.0013749046, "MEAN_MOTION_DOT": 0.00010252, "MEAN_MOTION_DDOT": 0}, "tle": {"line1": "1 34815U 93036ABE 25343.46542075  .00010252  00000+0  13749-2 0  9997", "line2": "2 34815  74.0452 248.2294 0058866 318.1055  41.5622 14.78241415885796"}}, "geometry": {"type": "Point", "coordinates": [122.8503121630365, -71.23810397561728]}}, {"type": "Feature", "properties": {"norad_id": 34816, "name": "COSMOS 2251 DEB", "group": "cosmos-2251-debris", "lat": -52.83505145773379, "lon": 123.76199803105392, "alt_km": 1052.8936003379076, "timestamp": "2025-12-10T20:49:52.947819+00:00", "meta": {"OBJECT_NAME": "COSMOS 2251 DEB", "OBJECT_ID": "1993-036ABF", "EPOCH": "2025-12-06T22:26:27.336768", "MEAN_MOTION": 13.5829822, "ECCENTRICITY": 0.03736298, "INCLINATION": 73.886, "RA_OF_ASC_NODE": 152.5929, "ARG_OF_PERICENTER": 218.068, "MEAN_ANOMALY": 297.1187, "EPHEMERIS_TYPE": 0, "CLASSIFICATION_TYPE": "U", "NORAD_CAT_ID": 34816, "ELEMENT_SET_NO": 999, "REV_AT_EPOCH": 82704, "BSTAR": 0.0017880706, "MEAN_MOTION_DOT": 2.026e-05, "MEAN_MOTION_DDOT": 0}, "tle": {"line1": "1 34816U 93036ABF 25340.93503862  .00002026  00000+0  17881-2 0  9999", "line2": "2 34816  73.8860 152.5929 0373629 218.0680 297.1187 13.58298220827040"}}, "geometry": {"type": "Point", "coordinates": [123.76199803105392, -52.83505145773379]}}, {"type": "Feature", "properties": {"norad_id": 34818, "name": "COSMOS 2251 DEB", "group": "cosmos-2251-debris", "lat": 73.20497580465027, "lon": 48.86153307601881, "alt_km": 757.7815889796202, "timestamp": "2025-12-10T20:49:52.947829+00:00", "meta": {"OBJECT_NAME": "COSMOS 2251 DEB", "OBJECT_ID": "1993-036ABH", "EPOCH": "2025-12-10T07:44:16.027008", "MEAN_MOTION": 14.36962335, "ECCENTRICITY": 0.0024056, "INCLINATION": 74.0356, "RA_OF_ASC_NODE": 301.3836, "ARG_OF_PERICENTER": 17.6421, "MEAN_ANOMALY": 136.2189, "EPHEMERIS_TYPE": 0, "CLASSIFICATION_TYPE": "U", "NORAD_CAT_ID": 34818, "ELEMENT_SET_NO": 999, "REV_AT_EPOCH": 87335, "BSTAR": 0.0003859, "MEAN_MOTION_DOT": 1.121e-05, "MEAN_MOTION_DDOT": 0}, "tle": {"line1": "1 34818U 93036ABH 25344.32240772  .00001121  00000+0  38590-3 0  9992", "line2": "2 34818  74.0356 301.3836 0024056  17.6421 136.2189 14.36962335873351"}}, "geometry": {"type": "Point", "coordinates": [48.86153307601881, 73.20497580465027]}}]}